start=new Date('2022-06-20T00:00:00.000Z').valueOf();
sats=[{"FILE":"3497669","TLE_LINE1":"1 46117U 20057A   22170.76640107  .00006957  00000-0  48529-3 0  9994","ARG_OF_PERICENTER":"69.6886","MEAN_ELEMENT_THEORY":"SGP4","RA_OF_ASC_NODE":"277.0537","ELEMENT_SET_NO":"999","OBJECT_NAME":"STARLINK-1585","TIME_SYSTEM":"UTC","COUNTRY_CODE":"US","CLASSIFICATION_TYPE":"U","MEAN_MOTION_DDOT":"0.0000000000000","LAUNCH_DATE":"2020-08-18","ECCENTRICITY":"0.00014610","OBJECT_TYPE":"PAYLOAD","EPOCH":"2022-06-19T18:23:37.052448","REV_AT_EPOCH":"10152","SITE":"AFETR","MEAN_MOTION":"15.06416624","SEMIMAJOR_AXIS":"6925.298","OBJECT_ID":"2020-057A","APOAPSIS":"548.174","NORAD_CAT_ID":"46117","PERIAPSIS":"546.151","BSTAR":"0.00048529000000","REF_FRAME":"TEME","GP_ID":"206445994","MEAN_ANOMALY":"290.4259","MEAN_MOTION_DOT":"0.00006957","TLE_LINE2":"2 46117  53.0524 277.0537 0001461  69.6886 290.4259 15.06416624101521","CENTER_NAME":"EARTH","EPHEMERIS_TYPE":"0","RCS_SIZE":"LARGE","PERIOD":"95.591","DECAY_DATE":null,"INCLINATION":"53.0524"},{"MEAN_ELEMENT_THEORY":"SGP4","ARG_OF_PERICENTER":"64.2622","TLE_LINE1":"1 46118U 20057B   22170.77560987  .00002110  00000-0  16056-3 0  9990","FILE":"3497669","ELEMENT_SET_NO":"999","RA_OF_ASC_NODE":"297.0128","COUNTRY_CODE":"US","TIME_SYSTEM":"UTC","OBJECT_NAME":"STARLINK-1588","LAUNCH_DATE":"2020-08-18","ECCENTRICITY":"0.00015270","MEAN_MOTION_DDOT":"0.0000000000000","CLASSIFICATION_TYPE":"U","REV_AT_EPOCH":"10252","EPOCH":"2022-06-19T18:36:52.692768","OBJECT_TYPE":"PAYLOAD","PERIAPSIS":"546.175","NORAD_CAT_ID":"46118","APOAPSIS":"548.290","SEMIMAJOR_AXIS":"6925.367","OBJECT_ID":"2020-057B","MEAN_MOTION":"15.06393961","SITE":"AFETR","EPHEMERIS_TYPE":"0","RCS_SIZE":"LARGE","TLE_LINE2":"2 46118  53.0549 297.0128 0001527  64.2622 295.8524 15.06393961102522","CENTER_NAME":"EARTH","MEAN_MOTION_DOT":"0.00002110","MEAN_ANOMALY":"295.8524","REF_FRAME":"TEME","GP_ID":"206444747","BSTAR":"0.00016056000000","INCLINATION":"53.0549","DECAY_DATE":null,"PERIOD":"95.593"},{"EPOCH":"2022-06-19T18:20:57.621120","OBJECT_TYPE":"PAYLOAD","REV_AT_EPOCH":"10250","SITE":"AFETR","MEAN_MOTION":"15.06402578","OBJECT_ID":"2020-057C","SEMIMAJOR_AXIS":"6925.341","APOAPSIS":"548.278","NORAD_CAT_ID":"46119","PERIAPSIS":"546.134","BSTAR":"0.00018733000000","REF_FRAME":"TEME","GP_ID":"206444996","MEAN_MOTION_DOT":"0.00002510","MEAN_ANOMALY":"285.0378","CENTER_NAME":"EARTH","TLE_LINE2":"2 46119  53.0531 297.0727 0001548  75.0782 285.0378 15.06402578102500","EPHEMERIS_TYPE":"0","RCS_SIZE":"LARGE","PERIOD":"95.592","DECAY_DATE":null,"INCLINATION":"53.0531","FILE":"3497669","ARG_OF_PERICENTER":"75.0782","TLE_LINE1":"1 46119U 20057C   22170.76455580  .00002510  00000-0  18733-3 0  9990","MEAN_ELEMENT_THEORY":"SGP4","RA_OF_ASC_NODE":"297.0727","ELEMENT_SET_NO":"999","OBJECT_NAME":"STARLINK-1593","TIME_SYSTEM":"UTC","COUNTRY_CODE":"US","CLASSIFICATION_TYPE":"U","MEAN_MOTION_DDOT":"0.0000000000000","LAUNCH_DATE":"2020-08-18","ECCENTRICITY":"0.00015480"},{"REV_AT_EPOCH":"10252","EPOCH":"2022-06-19T17:59:44.066112","OBJECT_TYPE":"PAYLOAD","PERIAPSIS":"546.086","NORAD_CAT_ID":"46120","APOAPSIS":"548.342","SEMIMAJOR_AXIS":"6925.349","OBJECT_ID":"2020-057D","MEAN_MOTION":"15.06399897","SITE":"AFETR","EPHEMERIS_TYPE":"0","RCS_SIZE":"LARGE","TLE_LINE2":"2 46120  53.0546 297.1443 0001629  61.4646 298.6507 15.06399897102527","CENTER_NAME":"EARTH","MEAN_MOTION_DOT":"-0.00000328","MEAN_ANOMALY":"298.6507","GP_ID":"206445247","REF_FRAME":"TEME","BSTAR":"-0.00000310260000","INCLINATION":"53.0546","DECAY_DATE":null,"PERIOD":"95.592","MEAN_ELEMENT_THEORY":"SGP4","ARG_OF_PERICENTER":"61.4646","TLE_LINE1":"1 46120U 20057D   22170.74981558 -.00000328  00000-0 -31026-5 0  9998","FILE":"3497669","ELEMENT_SET_NO":"999","RA_OF_ASC_NODE":"297.1443","COUNTRY_CODE":"US","TIME_SYSTEM":"UTC","OBJECT_NAME":"STARLINK-1601","LAUNCH_DATE":"2020-08-18","ECCENTRICITY":"0.00016290","MEAN_MOTION_DDOT":"0.0000000000000","CLASSIFICATION_TYPE":"U"},{"ELEMENT_SET_NO":"999","RA_OF_ASC_NODE":"277.2905","MEAN_ELEMENT_THEORY":"SGP4","ARG_OF_PERICENTER":"66.3243","TLE_LINE1":"1 46121U 20057E   22170.71847576  .00002548  00000-0  18991-3 0  9995","FILE":"3497669","ECCENTRICITY":"0.00014290","LAUNCH_DATE":"2020-08-18","CLASSIFICATION_TYPE":"U","MEAN_MOTION_DDOT":"0.0000000000000","COUNTRY_CODE":"US","OBJECT_NAME":"STARLINK-1602","TIME_SYSTEM":"UTC","APOAPSIS":"548.206","NORAD_CAT_ID":"46121","PERIAPSIS":"546.227","SITE":"AFETR","OBJECT_ID":"2020-057E","SEMIMAJOR_AXIS":"6925.351","MEAN_MOTION":"15.06399108","REV_AT_EPOCH":"10151","OBJECT_TYPE":"PAYLOAD","EPOCH":"2022-06-19T17:14:36.305664","INCLINATION":"53.0563","PERIOD":"95.592","DECAY_DATE":null,"MEAN_ANOMALY":"293.7895","MEAN_MOTION_DOT":"0.00002548","RCS_SIZE":"LARGE","EPHEMERIS_TYPE":"0","TLE_LINE2":"2 46121  53.0563 277.2905 0001429  66.3243 293.7895 15.06399108101513","CENTER_NAME":"EARTH","GP_ID":"206445494","REF_FRAME":"TEME","BSTAR":"0.00018991000000"},{"INCLINATION":"53.0548","DECAY_DATE":null,"PERIOD":"95.593","TLE_LINE2":"2 46122  53.0548 258.1186 0001355  62.8841 297.2286 15.06391162103022","CENTER_NAME":"EARTH","EPHEMERIS_TYPE":"0","RCS_SIZE":"LARGE","MEAN_MOTION_DOT":"0.00002654","MEAN_ANOMALY":"297.2286","BSTAR":"0.00019703000000","GP_ID":"206414440","REF_FRAME":"TEME","PERIAPSIS":"546.302","APOAPSIS":"548.179","NORAD_CAT_ID":"46122","MEAN_MOTION":"15.06391162","OBJECT_ID":"2020-057F","SEMIMAJOR_AXIS":"6925.376","SITE":"AFETR","REV_AT_EPOCH":"10302","OBJECT_TYPE":"PAYLOAD","EPOCH":"2022-06-19T12:41:16.709568","LAUNCH_DATE":"2020-08-18","ECCENTRICITY":"0.00013550","MEAN_MOTION_DDOT":"0.0000000000000","CLASSIFICATION_TYPE":"U","COUNTRY_CODE":"US","TIME_SYSTEM":"UTC","OBJECT_NAME":"STARLINK-1604","ELEMENT_SET_NO":"999","RA_OF_ASC_NODE":"258.1186","MEAN_ELEMENT_THEORY":"SGP4","FILE":"3497010","ARG_OF_PERICENTER":"62.8841","TLE_LINE1":"1 46122U 20057F   22170.52866562  .00002654  00000-0  19703-3 0  9991"},{"ELEMENT_SET_NO":"999","RA_OF_ASC_NODE":"258.2005","MEAN_ELEMENT_THEORY":"SGP4","ARG_OF_PERICENTER":"57.7593","TLE_LINE1":"1 46123U 20057G   22170.51390304  .00001525  00000-0  12127-3 0  9996","FILE":"3497010","LAUNCH_DATE":"2020-08-18","ECCENTRICITY":"0.00016700","MEAN_MOTION_DDOT":"0.0000000000000","CLASSIFICATION_TYPE":"U","COUNTRY_CODE":"US","TIME_SYSTEM":"UTC","OBJECT_NAME":"STARLINK-1605","PERIAPSIS":"546.062","NORAD_CAT_ID":"46123","APOAPSIS":"548.375","OBJECT_ID":"2020-057G","SEMIMAJOR_AXIS":"6925.354","MEAN_MOTION":"15.06398327","SITE":"AFETR","REV_AT_EPOCH":"10304","OBJECT_TYPE":"PAYLOAD","EPOCH":"2022-06-19T12:20:01.222656","INCLINATION":"53.0552","DECAY_DATE":null,"PERIOD":"95.592","RCS_SIZE":"LARGE","EPHEMERIS_TYPE":"0","TLE_LINE2":"2 46123  53.0552 258.2005 0001670  57.7593 302.3558 15.06398327103048","CENTER_NAME":"EARTH","MEAN_ANOMALY":"302.3558","MEAN_MOTION_DOT":"0.00001525","REF_FRAME":"TEME","GP_ID":"206414690","BSTAR":"0.00012127000000"},{"RA_OF_ASC_NODE":"258.1623","ELEMENT_SET_NO":"999","TLE_LINE1":"1 46124U 20057H   22170.52128392 -.00000490  00000-0 -14026-4 0  9997","ARG_OF_PERICENTER":"58.1057","FILE":"3497010","MEAN_ELEMENT_THEORY":"SGP4","CLASSIFICATION_TYPE":"U","MEAN_MOTION_DDOT":"0.0000000000000","LAUNCH_DATE":"2020-08-18","ECCENTRICITY":"0.00013770","OBJECT_NAME":"STARLINK-1614","TIME_SYSTEM":"UTC","COUNTRY_CODE":"US","SITE":"AFETR","SEMIMAJOR_AXIS":"6925.376","OBJECT_ID":"2020-057H","MEAN_MOTION":"15.06390994","APOAPSIS":"548.195","NORAD_CAT_ID":"46124","PERIAPSIS":"546.288","OBJECT_TYPE":"PAYLOAD","EPOCH":"2022-06-19T12:30:38.930688","REV_AT_EPOCH":"10177","PERIOD":"95.593","DECAY_DATE":null,"INCLINATION":"53.0532","REF_FRAME":"TEME","GP_ID":"206412938","BSTAR":"-0.00001402600000","MEAN_MOTION_DOT":"-0.00000490","MEAN_ANOMALY":"302.0066","RCS_SIZE":"LARGE","EPHEMERIS_TYPE":"0","CENTER_NAME":"EARTH","TLE_LINE2":"2 46124  53.0532 258.1623 0001377  58.1057 302.0066 15.06390994101777"},{"MEAN_MOTION":"15.06404285","OBJECT_ID":"2020-057J","SEMIMAJOR_AXIS":"6925.335","SITE":"AFETR","PERIAPSIS":"546.207","NORAD_CAT_ID":"46125","APOAPSIS":"548.194","OBJECT_TYPE":"PAYLOAD","EPOCH":"2022-06-19T20:01:48.225216","REV_AT_EPOCH":"10251","DECAY_DATE":null,"PERIOD":"95.592","INCLINATION":"53.0556","BSTAR":"0.00022812000000","GP_ID":"206445995","REF_FRAME":"TEME","TLE_LINE2":"2 46125  53.0556 296.7613 0001435  77.6456 282.4694 15.06404285102515","CENTER_NAME":"EARTH","RCS_SIZE":"LARGE","EPHEMERIS_TYPE":"0","MEAN_ANOMALY":"282.4694","MEAN_MOTION_DOT":"0.00003118","RA_OF_ASC_NODE":"296.7613","ELEMENT_SET_NO":"999","FILE":"3497669","TLE_LINE1":"1 46125U 20057J   22170.83458594  .00003118  00000-0  22812-3 0  9991","ARG_OF_PERICENTER":"77.6456","MEAN_ELEMENT_THEORY":"SGP4","MEAN_MOTION_DDOT":"0.0000000000000","CLASSIFICATION_TYPE":"U","ECCENTRICITY":"0.00014350","LAUNCH_DATE":"2020-08-18","TIME_SYSTEM":"UTC","OBJECT_NAME":"STARLINK-1618","COUNTRY_CODE":"US"},{"RA_OF_ASC_NODE":"297.7724","ELEMENT_SET_NO":"999","TLE_LINE1":"1 46126U 20057K   22170.60974251  .00008192  00000-0  56801-3 0  9992","ARG_OF_PERICENTER":"88.4589","FILE":"3497669","MEAN_ELEMENT_THEORY":"SGP4","CLASSIFICATION_TYPE":"U","MEAN_MOTION_DDOT":"0.0000000000000","LAUNCH_DATE":"2020-08-18","ECCENTRICITY":"0.00013190","OBJECT_NAME":"STARLINK-1619","TIME_SYSTEM":"UTC","COUNTRY_CODE":"US","SITE":"AFETR","SEMIMAJOR_AXIS":"6925.311","OBJECT_ID":"2020-057K","MEAN_MOTION":"15.06412280","APOAPSIS":"548.089","NORAD_CAT_ID":"46126","PERIAPSIS":"546.262","EPOCH":"2022-06-19T14:38:01.752864","OBJECT_TYPE":"PAYLOAD","REV_AT_EPOCH":"10122","PERIOD":"95.591","DECAY_DATE":null,"INCLINATION":"53.0538","REF_FRAME":"TEME","GP_ID":"206444748","BSTAR":"0.00056801000000","MEAN_MOTION_DOT":"0.00008192","MEAN_ANOMALY":"271.6551","EPHEMERIS_TYPE":"0","RCS_SIZE":"LARGE","TLE_LINE2":"2 46126  53.0538 297.7724 0001319  88.4589 271.6551 15.06412280101221","CENTER_NAME":"EARTH"}];
